{"type": "FeatureCollection", "features": [{"type": "Feature", "properties": {"norad_id": 26766, "name": "INTELSAT 10 (IS-10)", "group": "intelsat", "lat": 8.481989555590475, "lon": 160.8603119831103, "alt_km": 36138.74272459982, "timestamp": "2025-12-02T17:49:11.693063+00:00", "meta": {"OBJECT_NAME": "INTELSAT 10 (IS-10)", "OBJECT_ID": "2001-019A", "EPOCH": "2025-12-02T11:35:38.855904", "MEAN_MOTION": 0.99077787, "ECCENTRICITY": 0.0007699, "INCLINATION": 8.6036, "RA_OF_ASC_NODE": 61.2568, "ARG_OF_PERICENTER": 218.3784, "MEAN_ANOMALY": 148.6829, "EPHEMERIS_TYPE": 0, "CLASSIFICATION_TYPE": "U", "NORAD_CAT_ID": 26766, "ELEMENT_SET_NO": 999, "REV_AT_EPOCH": 4363, "BSTAR": 0, "MEAN_MOTION_DOT": -1.25e-06, "MEAN_MOTION_DDOT": 0}, "tle": {"line1": "1 26766U 01019A   25336.48308861 -.00000125  00000+0  00000+0 0  9992", "line2": "2 26766   8.6036  61.2568 0007699 218.3784 148.6829  0.99077787 43632"}}, "geometry": {"type": "Point", "coordinates": [160.8603119831103, 8.481989555590475]}}, {"type": "Feature", "properties": {"norad_id": 26900, "name": "INTELSAT 902 (IS-902)", "group": "intelsat", "lat": -3.2231232281879527, "lon": -71.09974440247565, "alt_km": 35772.98156064528, "timestamp": "2025-12-02T17:49:11.693088+00:00", "meta": {"OBJECT_NAME": "INTELSAT 902 (IS-902)", "OBJECT_ID": "2001-039A", "EPOCH": "2025-12-01T16:59:59.311968", "MEAN_MOTION": 1.00270327, "ECCENTRICITY": 0.00043097, "INCLINATION": 5.6187, "RA_OF_ASC_NODE": 74.2002, "ARG_OF_PERICENTER": 175.119, "MEAN_ANOMALY": 26.3816, "EPHEMERIS_TYPE": 0, "CLASSIFICATION_TYPE": "U", "NORAD_CAT_ID": 26900, "ELEMENT_SET_NO": 999, "REV_AT_EPOCH": 8871, "BSTAR": 0, "MEAN_MOTION_DOT": -2.63e-06, "MEAN_MOTION_DDOT": 0}, "tle": {"line1": "1 26900U 01039A   25335.70832537 -.00000263  00000+0  00000+0 0  9993", "line2": "2 26900   5.6187  74.2002 0004309 175.1190  26.3816  1.00270327 88713"}}, "geometry": {"type": "Point", "coordinates": [-71.09974440247565, -3.2231232281879527]}}, {"type": "Feature", "properties": {"norad_id": 27380, "name": "INTELSAT 904 (IS-904)", "group": "intelsat", "lat": -5.340246470581387, "lon": -52.52280845852784, "alt_km": 35782.495779929646, "timestamp": "2025-12-02T17:49:11.693103+00:00", "meta": {"OBJECT_NAME": "INTELSAT 904 (IS-904)", "OBJECT_ID": "2002-007A", "EPOCH": "2025-12-02T03:21:43.155648", "MEAN_MOTION": 1.0026967, "ECCENTRICITY": 0.0001502, "INCLINATION": 6.4264, "RA_OF_ASC_NODE": 71.5525, "ARG_OF_PERICENTER": 197.1555, "MEAN_ANOMALY": 181.4839, "EPHEMERIS_TYPE": 0, "CLASSIFICATION_TYPE": "U", "NORAD_CAT_ID": 27380, "ELEMENT_SET_NO": 999, "REV_AT_EPOCH": 4979, "BSTAR": 0, "MEAN_MOTION_DOT": -2.07e-06, "MEAN_MOTION_DDOT": 0}, "tle": {"line1": "1 27380U 02007A   25336.14008282 -.00000207  00000+0  00000+0 0  9991", "line2": "2 27380   6.4264  71.5525 0001502 197.1555 181.4839  1.00269670 49794"}}, "geometry": {"type": "Point", "coordinates": [-52.52280845852784, -5.340246470581387]}}, {"type": "Feature", "properties": {"norad_id": 27426, "name": "DIRECTV 5 (TEMPO 1)", "group": "intelsat", "lat": 2.0804844977466663, "lon": -130.95744956907788, "alt_km": 35773.370050014186, "timestamp": "2025-12-02T17:49:11.693116+00:00", "meta": {"OBJECT_NAME": "DIRECTV 5 (TEMPO 1)", "OBJECT_ID": "2002-023A", "EPOCH": "2025-12-02T08:35:38.815296", "MEAN_MOTION": 1.00271138, "ECCENTRICITY": 0.0003699, "INCLINATION": 4.3735, "RA_OF_ASC_NODE": 77.7745, "ARG_OF_PERICENTER": 187.6548, "MEAN_ANOMALY": 184.8233, "EPHEMERIS_TYPE": 0, "CLASSIFICATION_TYPE": "U", "NORAD_CAT_ID": 27426, "ELEMENT_SET_NO": 999, "REV_AT_EPOCH": 8615, "BSTAR": 0, "MEAN_MOTION_DOT": -3.7e-07, "MEAN_MOTION_DDOT": 0}, "tle": {"line1": "1 27426U 02023A   25336.35808814 -.00000037  00000+0  00000+0 0  9993", "line2": "2 27426   4.3735  77.7745 0003699 187.6548 184.8233  1.00271138 86150"}}, "geometry": {"type": "Point", "coordinates": [-130.95744956907788, 2.0804844977466663]}}, {"type": "Feature", "properties": {"norad_id": 27438, "name": "INTELSAT 905 (IS-905)", "group": "intelsat", "lat": 4.788833088486109, "lon": -157.92861118422655, "alt_km": 35778.08367341211, "timestamp": "2025-12-02T17:49:11.693128+00:00", "meta": {"OBJECT_NAME": "INTELSAT 905 (IS-905)", "OBJECT_ID": "2002-027A", "EPOCH": "2025-12-02T09:56:38.678784", "MEAN_MOTION": 1.00272936, "ECCENTRICITY": 0.0003069, "INCLINATION": 6.2577, "RA_OF_ASC_NODE": 72.1733, "ARG_OF_PERICENTER": 187.1236, "MEAN_ANOMALY": 184.1903, "EPHEMERIS_TYPE": 0, "CLASSIFICATION_TYPE": "U", "NORAD_CAT_ID": 27438, "ELEMENT_SET_NO": 999, "REV_AT_EPOCH": 4939, "BSTAR": 0, "MEAN_MOTION_DOT": 1.12e-06, "MEAN_MOTION_DDOT": 0}, "tle": {"line1": "1 27438U 02027A   25336.41433656  .00000112  00000+0  00000+0 0  9998", "line2": "2 27438   6.2577  72.1733 0003069 187.1236 184.1903  1.00272936 49393"}}, "geometry": {"type": "Point", "coordinates": [-157.92861118422655, 4.788833088486109]}}, {"type": "Feature", "properties": {"norad_id": 27445, "name": "GALAXY 3C (G-3C)", "group": "intelsat", "lat": 0.8852576479284279, "lon": -115.69968678536283, "alt_km": 35784.15913426525, "timestamp": "2025-12-02T17:49:11.693141+00:00", "meta": {"OBJECT_NAME": "GALAXY 3C (G-3C)", "OBJECT_ID": "2002-030A", "EPOCH": "2025-12-02T08:19:38.698752", "MEAN_MOTION": 1.00270405, "ECCENTRICITY": 0.0001307, "INCLINATION": 3.2363, "RA_OF_ASC_NODE": 80.612, "ARG_OF_PERICENTER": 97.2134, "MEAN_ANOMALY": 283.6835, "EPHEMERIS_TYPE": 0, "CLASSIFICATION_TYPE": "U", "NORAD_CAT_ID": 27445, "ELEMENT_SET_NO": 999, "REV_AT_EPOCH": 4452, "BSTAR": 0, "MEAN_MOTION_DOT": -1.32e-06, "MEAN_MOTION_DDOT": 0}, "tle": {"line1": "1 27445U 02030A   25336.34697568 -.00000132  00000+0  00000+0 0  9999", "line2": "2 27445   3.2363  80.6120 0001307  97.2134 283.6835  1.00270405 44524"}}, "geometry": {"type": "Point", "coordinates": [-115.69968678536283, 0.8852576479284279]}}, {"type": "Feature", "properties": {"norad_id": 27513, "name": "INTELSAT 906 (IS-906)", "group": "intelsat", "lat": -2.786900900513574, "lon": 43.410582980402616, "alt_km": 35805.04191464654, "timestamp": "2025-12-02T17:49:11.693153+00:00", "meta": {"OBJECT_NAME": "INTELSAT 906 (IS-906)", "OBJECT_ID": "2002-041A", "EPOCH": "2025-12-02T00:41:51.813024", "MEAN_MOTION": 1.00272894, "ECCENTRICITY": 0.00061114, "INCLINATION": 5.3019, "RA_OF_ASC_NODE": 75.3582, "ARG_OF_PERICENTER": 191.023, "MEAN_ANOMALY": 239.354, "EPHEMERIS_TYPE": 0, "CLASSIFICATION_TYPE": "U", "NORAD_CAT_ID": 27513, "ELEMENT_SET_NO": 999, "REV_AT_EPOCH": 8505, "BSTAR": 0, "MEAN_MOTION_DOT": 3.2e-07, "MEAN_MOTION_DDOT": 0}, "tle": {"line1": "1 27513U 02041A   25336.02907191  .00000032  00000+0  00000+0 0  9996", "line2": "2 27513   5.3019  75.3582 0006111 191.0230 239.3540  1.00272894 85050"}}, "geometry": {"type": "Point", "coordinates": [43.410582980402616, -2.786900900513574]}}, {"type": "Feature", "properties": {"norad_id": 27954, "name": "GALAXY 13 (HORIZONS-1)", "group": "intelsat", "lat": 0.8675257229665889, "lon": -170.91193191884497, "alt_km": 35780.99189497641, "timestamp": "2025-12-02T17:49:11.693165+00:00", "meta": {"OBJECT_NAME": "GALAXY 13 (HORIZONS-1)", "OBJECT_ID": "2003-044A", "EPOCH": "2025-12-02T10:12:38.537856", "MEAN_MOTION": 1.0027209, "ECCENTRICITY": 0.000209, "INCLINATION": 0.9089, "RA_OF_ASC_NODE": 86.5962, "ARG_OF_PERICENTER": 159.2396, "MEAN_ANOMALY": 188.8459, "EPHEMERIS_TYPE": 0, "CLASSIFICATION_TYPE": "U", "NORAD_CAT_ID": 27954, "ELEMENT_SET_NO": 999, "REV_AT_EPOCH": 4459, "BSTAR": 0, "MEAN_MOTION_DOT": 1.53e-06, "MEAN_MOTION_DDOT": 0}, "tle": {"line1": "1 27954U 03044A   25336.42544604  .00000153  00000+0  00000+0 0  9993", "line2": "2 27954   0.9089  86.5962 0002090 159.2396 188.8459  1.00272090 44593"}}, "geometry": {"type": "Point", "coordinates": [-170.91193191884497, 0.8675257229665889]}}, {"type": "Feature", "properties": {"norad_id": 28358, "name": "INTELSAT 10-02", "group": "intelsat", "lat": -0.012631704714959953, "lon": -21.864654511556225, "alt_km": 35783.70487272871, "timestamp": "2025-12-02T17:49:11.693205+00:00", "meta": {"OBJECT_NAME": "INTELSAT 10-02", "OBJECT_ID": "2004-022A", "EPOCH": "2025-12-02T08:38:39.570144", "MEAN_MOTION": 1.00271752, "ECCENTRICITY": 0.0001137, "INCLINATION": 0.0384, "RA_OF_ASC_NODE": 84.83, "ARG_OF_PERICENTER": 193.1613, "MEAN_ANOMALY": 282.1496, "EPHEMERIS_TYPE": 0, "CLASSIFICATION_TYPE": "U", "NORAD_CAT_ID": 28358, "ELEMENT_SET_NO": 999, "REV_AT_EPOCH": 7858, "BSTAR": 0, "MEAN_MOTION_DOT": 1e-07, "MEAN_MOTION_DDOT": 0}, "tle": {"line1": "1 28358U 04022A   25336.36018021  .00000010  00000+0  00000+0 0  9993", "line2": "2 28358   0.0384  84.8300 0001137 193.1613 282.1496  1.00271752 78587"}}, "geometry": {"type": "Point", "coordinates": [-21.864654511556225, -0.012631704714959953]}}, {"type": "Feature", "properties": {"norad_id": 28626, "name": "XM-3 (RHYTHM)", "group": "intelsat", "lat": 0.12263314086455201, "lon": 140.85341923915527, "alt_km": 36162.32261893647, "timestamp": "2025-12-02T17:49:11.693232+00:00", "meta": {"OBJECT_NAME": "XM-3 (RHYTHM)", "OBJECT_ID": "2005-008A", "EPOCH": "2025-12-01T16:19:10.718688", "MEAN_MOTION": 0.98955107, "ECCENTRICITY": 8.384e-05, "INCLINATION": 0.1433, "RA_OF_ASC_NODE": 80.6256, "ARG_OF_PERICENTER": 270.4663, "MEAN_ANOMALY": 131.2697, "EPHEMERIS_TYPE": 0, "CLASSIFICATION_TYPE": "U", "NORAD_CAT_ID": 28626, "ELEMENT_SET_NO": 999, "REV_AT_EPOCH": 4064, "BSTAR": 0, "MEAN_MOTION_DOT": -2.1e-06, "MEAN_MOTION_DDOT": 0}, "tle": {"line1": "1 28626U 05008A   25335.67998517 -.00000210  00000+0  00000+0 0  9999", "line2": "2 28626   0.1433  80.6256 0000838 270.4663 131.2697  0.98955107 40648"}}, "geometry": {"type": "Point", "coordinates": [140.85341923915527, 0.12263314086455201]}}]}